OBJECT_NAME,OBJECT_ID,EPOCH,MEAN_MOTION,ECCENTRICITY,INCLINATION,RA_OF_ASC_NODE,ARG_OF_PERICENTER,MEAN_ANOMALY,EPHEMERIS_TYPE,CLASSIFICATION_TYPE,NORAD_CAT_ID,ELEMENT_SET_NO,REV_AT_EPOCH,BSTAR,MEAN_MOTION_DOT,MEAN_MOTION_DDOT
ONEWEB-0634,2023-043AF,2026-06-25T16:00:56.583648,13.15549080,.0002337,87.8996,257.5398,99.6353,260.5042,0,U,56075,999,15751,.33563E-3,.139E-5,0
ONEWEB-0635,2023-043AG,2026-06-25T14:04:33.732192,13.15547107,.0001854,87.9008,257.5192,93.0704,267.0639,0,U,56076,999,15753,.18098E-3,.81E-6,0
ONEWEB-0636,2023-043AH,2026-06-25T15:42:40.470912,13.15549985,.0001931,87.9006,257.5117,93.5455,266.5896,0,U,56077,999,15752,-.34804E-4,0,0
ONEWEB-0637,2023-043AJ,2026-06-25T17:23:04.907040,13.15549464,.0002168,87.8998,257.5138,93.0618,267.0760,0,U,56078,999,15755,-.24681E-3,-.8E-6,0
ONEWEB-0647,2023-043AK,2026-06-25T17:16:14.670336,13.15549088,.0001868,87.9000,257.5274,99.4534,260.6807,0,U,56079,999,15754,-.41519E-3,-.143E-5,0
ONEWEB-0651,2023-043AL,2026-06-25T20:48:26.232192,13.15549412,.0002022,87.8998,257.4913,92.6808,267.4554,0,U,56080,999,15876,-.17024E-3,-.51E-6,0
ONEWEB-0718,2023-043AM,2026-06-25T17:02:32.779968,13.15546943,.0002524,87.8999,257.5034,104.6166,255.5245,0,U,56081,999,15755,-.53789E-3,-.19E-5,0
ONEWEB-0561,2023-068A,2026-06-25T20:00:52.645824,13.20772441,.0001611,87.9202,272.7211,95.4468,264.6849,0,U,56710,999,15064,.2589E-3,.118E-5,0
ONEWEB-0668,2023-068B,2026-06-25T15:16:41.706912,13.16594765,.0002579,87.9089,227.0947,93.1336,267.0090,0,U,56711,999,15289,-.12459E-3,-.35E-6,0
ONEWEB-0676,2023-068C,2026-06-25T15:28:05.460096,13.16593434,.0001894,87.9090,227.0992,88.2740,271.8607,0,U,56712,999,15281,-.37366E-4,-.1E-7,0
ONEWEB-0677,2023-068D,2026-06-25T19:43:55.220160,13.20770403,.0002163,87.9195,272.7141,89.7221,270.4160,0,U,56713,999,15094,-.36466E-4,-.2E-7,0
ONEWEB-0678,2023-068E,2026-06-25T16:16:54.699168,13.15548995,.0001768,87.9009,257.5024,104.8881,255.2446,0,U,56714,999,15040,.46052E-3,.186E-5,0
ONEWEB-0679,2023-068F,2026-06-25T16:18:14.132736,13.16592577,.0002411,87.9092,227.0837,84.3874,275.7532,0,U,56715,999,15284,.95462E-4,.49E-6,0
ONEWEB-0680,2023-068G,2026-06-25T17:24:23.512896,13.21824215,.0002581,87.9257,242.2732,91.6842,268.4587,0,U,56716,999,15222,-.28277E-3,-.104E-5,0
ONEWEB-0681,2023-068H,2026-06-25T16:56:31.539840,13.21827507,.0001632,87.9252,242.2777,69.6804,290.4506,0,U,56717,999,15221,-.16987E-3,-.57E-6,0
ONEWEB-0682,2023-068J,2026-06-25T16:51:08.663904,13.15547347,.0002612,87.9001,257.4983,100.8172,259.3252,0,U,56718,999,15057,.10123E-2,.394E-5,0
ONEWEB-0683,2023-068K,2026-06-25T17:25:21.955584,13.15549406,.0002301,87.9008,257.4932,98.6246,261.5145,0,U,56719,999,15054,-.26022E-3,-.85E-6,0
ONEWEB-0684,2023-068L,2026-06-25T15:47:15.488160,13.15549039,.0002041,87.9006,257.4965,138.6825,221.4460,0,U,56720,999,15036,.85505E-4,.45E-6,0
ONEWEB-0686,2023-068M,2026-06-25T20:49:33.433248,13.16595437,.0002366,87.9081,227.0686,102.0464,258.0932,0,U,56721,999,15285,-.41316E-4,-.3E-7,0
ONEWEB-0694,2023-068N,2026-06-25T15:30:21.991104,13.16594979,.0002504,87.9100,227.0791,92.9320,267.2097,0,U,56722,999,15288,-.25153E-4,.3E-7,0
ONEWEB-0696,2023-068P,2026-06-25T16:35:10.146624,13.15546491,.0001622,87.9001,257.5280,108.3629,251.7678,0,U,56723,999,15048,-.12826E-3,-.35E-6,0
ONEWEB-0703,2023-068Q,2026-06-25T16:48:49.931424,13.15546791,.0001133,87.9001,257.5071,105.1749,254.9506,0,U,56724,999,15037,-.37541E-3,-.129E-5,0
ONEWEB-0721,2023-068R,2026-06-25T16:32:42.133056,13.22469650,.0001848,86.6762,82.8032,77.4148,282.7191,0,U,56725,999,15906,.30137E-4,.27E-6,0
ONEWEB-0015,2024-188A,2026-06-25T13:11:18.565152,13.11416141,.0001995,87.8882,19.4280,70.9040,289.2303,0,U,61594,999,8555,.13691E-2,.498E-5,0
ONEWEB-0687,2024-188B,2026-06-25T14:00:37.240704,13.17648490,.0002302,87.9128,4.2054,83.2313,276.9080,0,U,61595,999,8700,-.84664E-5,.1E-6,0
ONEWEB-0688,2024-188C,2026-06-25T12:52:34.629888,13.17649226,.0002314,87.9130,4.2144,57.1061,303.0293,0,U,61596,999,8699,-.45877E-4,-.5E-7,0
ONEWEB-0689,2024-188D,2026-06-25T14:00:06.605856,13.11414215,.0002126,87.8896,19.3802,89.9371,270.2000,0,U,61597,999,8555,-.11834E-2,-.407E-5,0
ONEWEB-0690,2024-188E,2026-06-25T14:14:46.234752,13.11417279,.0001195,87.8890,19.3895,87.9140,272.2125,0,U,61598,999,8573,-.14558E-2,-.503E-5,0
ONEWEB-0691,2024-188F,2026-06-25T14:07:26.609088,13.11417743,.0002052,87.8899,19.3001,77.4752,282.6606,0,U,61599,999,8558,-.14546E-2,-.503E-5,0
ONEWEB-0692,2024-188G,2026-06-25T14:36:45.446112,13.11418244,.0002209,87.8882,19.4079,107.4720,252.6649,0,U,61600,999,8557,-.23062E-3,-.69E-6,0
ONEWEB-0693,2024-188H,2026-06-25T13:09:35.347392,13.17648823,.0001086,87.9125,4.2320,81.0837,279.0418,0,U,61601,999,8698,.29577E-4,.24E-6,0
