[
  {
    "name": "ONEWEB-0634",
    "noradId": "56075",
    "line1": "1 56075U 23043AF  26176.66732157  .00000139  00000+0  33563-3 0  9999",
    "line2": "2 56075  87.8996 257.5398 0002337  99.6353 260.5042 13.15549080157515"
  },
  {
    "name": "ONEWEB-0635",
    "noradId": "56076",
    "line1": "1 56076U 23043AG  26176.58650153  .00000081  00000+0  18098-3 0  9998",
    "line2": "2 56076  87.9008 257.5192 0001854  93.0704 267.0639 13.15547107157538"
  },
  {
    "name": "ONEWEB-0636",
    "noradId": "56077",
    "line1": "1 56077U 23043AH  26176.65463508  .00000000  00000+0 -34804-4 0  9999",
    "line2": "2 56077  87.9006 257.5117 0001931  93.5455 266.5896 13.15549985157522"
  },
  {
    "name": "ONEWEB-0637",
    "noradId": "56078",
    "line1": "1 56078U 23043AJ  26176.72436235 -.00000080  00000+0 -24681-3 0  9995",
    "line2": "2 56078  87.8998 257.5138 0002168  93.0618 267.0760 13.15549464157555"
  },
  {
    "name": "ONEWEB-0647",
    "noradId": "56079",
    "line1": "1 56079U 23043AK  26176.71961424 -.00000143  00000+0 -41519-3 0  9997",
    "line2": "2 56079  87.9000 257.5274 0001868  99.4534 260.6807 13.15549088157547"
  },
  {
    "name": "ONEWEB-0651",
    "noradId": "56080",
    "line1": "1 56080U 23043AL  26176.86697028 -.00000051  00000+0 -17024-3 0  9993",
    "line2": "2 56080  87.8998 257.4913 0002022  92.6808 267.4554 13.15549412158765"
  },
  {
    "name": "ONEWEB-0718",
    "noradId": "56081",
    "line1": "1 56081U 23043AM  26176.71010162 -.00000190  00000+0 -53789-3 0  9998",
    "line2": "2 56081  87.8999 257.5034 0002524 104.6166 255.5245 13.15546943157557"
  },
  {
    "name": "ONEWEB-0561",
    "noradId": "56710",
    "line1": "1 56710U 23068A   26176.83394266  .00000118  00000+0  25890-3 0  9997",
    "line2": "2 56710  87.9202 272.7211 0001611  95.4468 264.6849 13.20772441150642"
  },
  {
    "name": "ONEWEB-0668",
    "noradId": "56711",
    "line1": "1 56711U 23068B   26176.63659383 -.00000035  00000+0 -12459-3 0  9997",
    "line2": "2 56711  87.9089 227.0947 0002579  93.1336 267.0090 13.16594765152898"
  },
  {
    "name": "ONEWEB-0676",
    "noradId": "56712",
    "line1": "1 56712U 23068C   26176.64450764 -.00000001  00000+0 -37366-4 0  9999",
    "line2": "2 56712  87.9090 227.0992 0001894  88.2740 271.8607 13.16593434152815"
  },
  {
    "name": "ONEWEB-0677",
    "noradId": "56713",
    "line1": "1 56713U 23068D   26176.82216690 -.00000002  00000+0 -36466-4 0  9999",
    "line2": "2 56713  87.9195 272.7141 0002163  89.7221 270.4160 13.20770403150944"
  },
  {
    "name": "ONEWEB-0678",
    "noradId": "56714",
    "line1": "1 56714U 23068E   26176.67841087  .00000186  00000+0  46052-3 0  9999",
    "line2": "2 56714  87.9009 257.5024 0001768 104.8881 255.2446 13.15548995150403"
  },
  {
    "name": "ONEWEB-0679",
    "noradId": "56715",
    "line1": "1 56715U 23068F   26176.67933024  .00000049  00000+0  95462-4 0  9991",
    "line2": "2 56715  87.9092 227.0837 0002411  84.3874 275.7532 13.16592577152849"
  },
  {
    "name": "ONEWEB-0680",
    "noradId": "56716",
    "line1": "1 56716U 23068G   26176.72527214 -.00000104  00000+0 -28277-3 0  9991",
    "line2": "2 56716  87.9257 242.2732 0002581  91.6842 268.4587 13.21824215152224"
  },
  {
    "name": "ONEWEB-0681",
    "noradId": "56717",
    "line1": "1 56717U 23068H   26176.70592060 -.00000057  00000+0 -16987-3 0  9993",
    "line2": "2 56717  87.9252 242.2777 0001632  69.6804 290.4506 13.21827507152210"
  },
  {
    "name": "ONEWEB-0682",
    "noradId": "56718",
    "line1": "1 56718U 23068J   26176.70218361  .00000394  00000+0  10123-2 0  9990",
    "line2": "2 56718  87.9001 257.4983 0002612 100.8172 259.3252 13.15547347150578"
  },
  {
    "name": "ONEWEB-0683",
    "noradId": "56719",
    "line1": "1 56719U 23068K   26176.72594856 -.00000085  00000+0 -26022-3 0  9994",
    "line2": "2 56719  87.9008 257.4932 0002301  98.6246 261.5145 13.15549406150542"
  },
  {
    "name": "ONEWEB-0684",
    "noradId": "56720",
    "line1": "1 56720U 23068L   26176.65781815  .00000045  00000+0  85505-4 0  9997",
    "line2": "2 56720  87.9006 257.4965 0002041 138.6825 221.4460 13.15549039150364"
  },
  {
    "name": "ONEWEB-0686",
    "noradId": "56721",
    "line1": "1 56721U 23068M   26176.86774807 -.00000003  00000+0 -41316-4 0  9992",
    "line2": "2 56721  87.9081 227.0686 0002366 102.0464 258.0932 13.16595437152855"
  },
  {
    "name": "ONEWEB-0694",
    "noradId": "56722",
    "line1": "1 56722U 23068N   26176.64608786  .00000003  00000+0 -25153-4 0  9991",
    "line2": "2 56722  87.9100 227.0791 0002504  92.9320 267.2097 13.16594979152884"
  },
  {
    "name": "ONEWEB-0696",
    "noradId": "56723",
    "line1": "1 56723U 23068P   26176.69108966 -.00000035  00000+0 -12826-3 0  9990",
    "line2": "2 56723  87.9001 257.5280 0001622 108.3629 251.7678 13.15546491150482"
  },
  {
    "name": "ONEWEB-0703",
    "noradId": "56724",
    "line1": "1 56724U 23068Q   26176.70057791 -.00000129  00000+0 -37541-3 0  9997",
    "line2": "2 56724  87.9001 257.5071 0001133 105.1749 254.9506 13.15546791150372"
  },
  {
    "name": "ONEWEB-0721",
    "noradId": "56725",
    "line1": "1 56725U 23068R   26176.68937654  .00000027  00000+0  30137-4 0  9990",
    "line2": "2 56725  86.6762  82.8032 0001848  77.4148 282.7191 13.22469650159066"
  },
  {
    "name": "ONEWEB-0015",
    "noradId": "61594",
    "line1": "1 61594U 24188A   26176.54952043  .00000498  00000+0  13691-2 0  9994",
    "line2": "2 61594  87.8882  19.4280 0001995  70.9040 289.2303 13.11416141 85559"
  },
  {
    "name": "ONEWEB-0687",
    "noradId": "61595",
    "line1": "1 61595U 24188B   26176.58376436  .00000010  00000+0 -84664-5 0  9997",
    "line2": "2 61595  87.9128   4.2054 0002302  83.2313 276.9080 13.17648490 87005"
  },
  {
    "name": "ONEWEB-0688",
    "noradId": "61596",
    "line1": "1 61596U 24188C   26176.53651192 -.00000005  00000+0 -45877-4 0  9995",
    "line2": "2 61596  87.9130   4.2144 0002314  57.1061 303.0293 13.17649226 86995"
  },
  {
    "name": "ONEWEB-0689",
    "noradId": "61597",
    "line1": "1 61597U 24188D   26176.58340979 -.00000407  00000+0 -11834-2 0  9999",
    "line2": "2 61597  87.8896  19.3802 0002126  89.9371 270.2000 13.11414215 85554"
  },
  {
    "name": "ONEWEB-0690",
    "noradId": "61598",
    "line1": "1 61598U 24188E   26176.59359068 -.00000503  00000+0 -14558-2 0  9993",
    "line2": "2 61598  87.8890  19.3895 0001195  87.9140 272.2125 13.11417279 85731"
  },
  {
    "name": "ONEWEB-0691",
    "noradId": "61599",
    "line1": "1 61599U 24188F   26176.58850242 -.00000503  00000+0 -14546-2 0  9990",
    "line2": "2 61599  87.8899  19.3001 0002052  77.4752 282.6606 13.11417743 85584"
  },
  {
    "name": "ONEWEB-0692",
    "noradId": "61600",
    "line1": "1 61600U 24188G   26176.60885933 -.00000069  00000+0 -23062-3 0  9992",
    "line2": "2 61600  87.8882  19.4079 0002209 107.4720 252.6649 13.11418244 85578"
  },
  {
    "name": "ONEWEB-0693",
    "noradId": "61601",
    "line1": "1 61601U 24188H   26176.54832578  .00000024  00000+0  29577-4 0  9990",
    "line2": "2 61601  87.9125   4.2320 0001086  81.0837 279.0418 13.17648823 86986"
  }
]